<?xml version="1.0" encoding="UTF-8"?>
<ndm xmlns:xsi="http://www.w3.org/2001/XMLSchema-instance" xsi:noNamespaceSchemaLocation="https://sanaregistry.org/r/ndmxml_unqualified/ndmxml-2.0.0-master-2.0.xsd">
<omm id="CCSDS_OMM_VERS" version="2.0">
<header><CREATION_DATE/><ORIGINATOR/></header><body><segment><metadata><OBJECT_NAME>KUIPER-00044</OBJECT_NAME><OBJECT_ID>2025-134F</OBJECT_ID><CENTER_NAME>EARTH</CENTER_NAME><REF_FRAME>TEME</REF_FRAME><TIME_SYSTEM>UTC</TIME_SYSTEM><MEAN_ELEMENT_THEORY>SGP4</MEAN_ELEMENT_THEORY></metadata><data><meanElements><EPOCH>2025-08-06T00:28:59.351232</EPOCH><MEAN_MOTION>15.15103595</MEAN_MOTION><ECCENTRICITY>.00134803</ECCENTRICITY><INCLINATION>51.8749</INCLINATION><RA_OF_ASC_NODE>123.3754</RA_OF_ASC_NODE><ARG_OF_PERICENTER>262.0076</ARG_OF_PERICENTER><MEAN_ANOMALY>97.9372</MEAN_ANOMALY></meanElements><tleParameters><EPHEMERIS_TYPE>0</EPHEMERIS_TYPE><CLASSIFICATION_TYPE>U</CLASSIFICATION_TYPE><NORAD_CAT_ID>64505</NORAD_CAT_ID><ELEMENT_SET_NO>999</ELEMENT_SET_NO><REV_AT_EPOCH>790</REV_AT_EPOCH><BSTAR>-.37405799E-2</BSTAR><MEAN_MOTION_DOT>-.70731E-3</MEAN_MOTION_DOT><MEAN_MOTION_DDOT>0</MEAN_MOTION_DDOT></tleParameters></data></segment></body></omm>
<omm id="CCSDS_OMM_VERS" version="2.0">
<header><CREATION_DATE/><ORIGINATOR/></header><body><segment><metadata><OBJECT_NAME>KUIPER-00046</OBJECT_NAME><OBJECT_ID>2025-134G</OBJECT_ID><CENTER_NAME>EARTH</CENTER_NAME><REF_FRAME>TEME</REF_FRAME><TIME_SYSTEM>UTC</TIME_SYSTEM><MEAN_ELEMENT_THEORY>SGP4</MEAN_ELEMENT_THEORY></metadata><data><meanElements><EPOCH>2025-08-06T22:00:01.999584</EPOCH><MEAN_MOTION>15.17287370</MEAN_MOTION><ECCENTRICITY>.00089621</ECCENTRICITY><INCLINATION>51.8761</INCLINATION><RA_OF_ASC_NODE>118.0695</RA_OF_ASC_NODE><ARG_OF_PERICENTER>283.7112</ARG_OF_PERICENTER><MEAN_ANOMALY>127.4135</MEAN_ANOMALY></meanElements><tleParameters><EPHEMERIS_TYPE>0</EPHEMERIS_TYPE><CLASSIFICATION_TYPE>U</CLASSIFICATION_TYPE><NORAD_CAT_ID>64506</NORAD_CAT_ID><ELEMENT_SET_NO>999</ELEMENT_SET_NO><REV_AT_EPOCH>490</REV_AT_EPOCH><BSTAR>-.18394353E-1</BSTAR><MEAN_MOTION_DOT>-.354522E-2</MEAN_MOTION_DOT><MEAN_MOTION_DDOT>0</MEAN_MOTION_DDOT></tleParameters></data></segment></body></omm>
<omm id="CCSDS_OMM_VERS" version="2.0">
<header><CREATION_DATE/><ORIGINATOR/></header><body><segment><metadata><OBJECT_NAME>KUIPER-00047</OBJECT_NAME><OBJECT_ID>2025-134H</OBJECT_ID><CENTER_NAME>EARTH</CENTER_NAME><REF_FRAME>TEME</REF_FRAME><TIME_SYSTEM>UTC</TIME_SYSTEM><MEAN_ELEMENT_THEORY>SGP4</MEAN_ELEMENT_THEORY></metadata><data><meanElements><EPOCH>2025-08-06T22:40:21.530496</EPOCH><MEAN_MOTION>15.34521331</MEAN_MOTION><ECCENTRICITY>.00097645</ECCENTRICITY><INCLINATION>51.8625</INCLINATION><RA_OF_ASC_NODE>116.8543</RA_OF_ASC_NODE><ARG_OF_PERICENTER>286.3543</ARG_OF_PERICENTER><MEAN_ANOMALY>73.6368</MEAN_ANOMALY></meanElements><tleParameters><EPHEMERIS_TYPE>0</EPHEMERIS_TYPE><CLASSIFICATION_TYPE>U</CLASSIFICATION_TYPE><NORAD_CAT_ID>64507</NORAD_CAT_ID><ELEMENT_SET_NO>999</ELEMENT_SET_NO><REV_AT_EPOCH>807</REV_AT_EPOCH><BSTAR>.44653109E-3</BSTAR><MEAN_MOTION_DOT>.14829E-3</MEAN_MOTION_DOT><MEAN_MOTION_DDOT>0</MEAN_MOTION_DDOT></tleParameters></data></segment></body></omm>
<omm id="CCSDS_OMM_VERS" version="2.0">
<header><CREATION_DATE/><ORIGINATOR/></header><body><segment><metadata><OBJECT_NAME>KUIPER-00048</OBJECT_NAME><OBJECT_ID>2025-134J</OBJECT_ID><CENTER_NAME>EARTH</CENTER_NAME><REF_FRAME>TEME</REF_FRAME><TIME_SYSTEM>UTC</TIME_SYSTEM><MEAN_ELEMENT_THEORY>SGP4</MEAN_ELEMENT_THEORY></metadata><data><meanElements><EPOCH>2025-08-06T21:17:50.103744</EPOCH><MEAN_MOTION>15.36590172</MEAN_MOTION><ECCENTRICITY>.00029576</ECCENTRICITY><INCLINATION>51.8762</INCLINATION><RA_OF_ASC_NODE>116.5346</RA_OF_ASC_NODE><ARG_OF_PERICENTER>258.6012</ARG_OF_PERICENTER><MEAN_ANOMALY>101.4643</MEAN_ANOMALY></meanElements><tleParameters><EPHEMERIS_TYPE>0</EPHEMERIS_TYPE><CLASSIFICATION_TYPE>U</CLASSIFICATION_TYPE><NORAD_CAT_ID>64508</NORAD_CAT_ID><ELEMENT_SET_NO>999</ELEMENT_SET_NO><REV_AT_EPOCH>807</REV_AT_EPOCH><BSTAR>.11777102E-2</BSTAR><MEAN_MOTION_DOT>.42579E-3</MEAN_MOTION_DOT><MEAN_MOTION_DDOT>0</MEAN_MOTION_DDOT></tleParameters></data></segment></body></omm>
<omm id="CCSDS_OMM_VERS" version="2.0">
<header><CREATION_DATE/><ORIGINATOR/></header><body><segment><metadata><OBJECT_NAME>KUIPER-00049</OBJECT_NAME><OBJECT_ID>2025-134K</OBJECT_ID><CENTER_NAME>EARTH</CENTER_NAME><REF_FRAME>TEME</REF_FRAME><TIME_SYSTEM>UTC</TIME_SYSTEM><MEAN_ELEMENT_THEORY>SGP4</MEAN_ELEMENT_THEORY></metadata><data><meanElements><EPOCH>2025-08-06T21:55:31.374048</EPOCH><MEAN_MOTION>15.35747175</MEAN_MOTION><ECCENTRICITY>.00064042</ECCENTRICITY><INCLINATION>51.8733</INCLINATION><RA_OF_ASC_NODE>116.6868</RA_OF_ASC_NODE><ARG_OF_PERICENTER>265.9361</ARG_OF_PERICENTER><MEAN_ANOMALY>94.0893</MEAN_ANOMALY></meanElements><tleParameters><EPHEMERIS_TYPE>0</EPHEMERIS_TYPE><CLASSIFICATION_TYPE>U</CLASSIFICATION_TYPE><NORAD_CAT_ID>64509</NORAD_CAT_ID><ELEMENT_SET_NO>999</ELEMENT_SET_NO><REV_AT_EPOCH>807</REV_AT_EPOCH><BSTAR>.66049949E-3</BSTAR><MEAN_MOTION_DOT>.23018E-3</MEAN_MOTION_DOT><MEAN_MOTION_DDOT>0</MEAN_MOTION_DDOT></tleParameters></data></segment></body></omm>
<omm id="CCSDS_OMM_VERS" version="2.0">
<header><CREATION_DATE/><ORIGINATOR/></header><body><segment><metadata><OBJECT_NAME>KUIPER-00050</OBJECT_NAME><OBJECT_ID>2025-134L</OBJECT_ID><CENTER_NAME>EARTH</CENTER_NAME><REF_FRAME>TEME</REF_FRAME><TIME_SYSTEM>UTC</TIME_SYSTEM><MEAN_ELEMENT_THEORY>SGP4</MEAN_ELEMENT_THEORY></metadata><data><meanElements><EPOCH>2025-08-06T22:05:05.568576</EPOCH><MEAN_MOTION>15.35287801</MEAN_MOTION><ECCENTRICITY>.00072774</ECCENTRICITY><INCLINATION>51.8739</INCLINATION><RA_OF_ASC_NODE>116.7343</RA_OF_ASC_NODE><ARG_OF_PERICENTER>263.7064</ARG_OF_PERICENTER><MEAN_ANOMALY>96.3093</MEAN_ANOMALY></meanElements><tleParameters><EPHEMERIS_TYPE>0</EPHEMERIS_TYPE><CLASSIFICATION_TYPE>U</CLASSIFICATION_TYPE><NORAD_CAT_ID>64510</NORAD_CAT_ID><ELEMENT_SET_NO>999</ELEMENT_SET_NO><REV_AT_EPOCH>807</REV_AT_EPOCH><BSTAR>.94064678E-3</BSTAR><MEAN_MOTION_DOT>.32507E-3</MEAN_MOTION_DOT><MEAN_MOTION_DDOT>0</MEAN_MOTION_DDOT></tleParameters></data></segment></body></omm>
<omm id="CCSDS_OMM_VERS" version="2.0">
<header><CREATION_DATE/><ORIGINATOR/></header><body><segment><metadata><OBJECT_NAME>KUIPER-00051</OBJECT_NAME><OBJECT_ID>2025-134M</OBJECT_ID><CENTER_NAME>EARTH</CENTER_NAME><REF_FRAME>TEME</REF_FRAME><TIME_SYSTEM>UTC</TIME_SYSTEM><MEAN_ELEMENT_THEORY>SGP4</MEAN_ELEMENT_THEORY></metadata><data><meanElements><EPOCH>2025-08-06T21:45:18.640800</EPOCH><MEAN_MOTION>15.35763713</MEAN_MOTION><ECCENTRICITY>.00056608</ECCENTRICITY><INCLINATION>51.8759</INCLINATION><RA_OF_ASC_NODE>116.6473</RA_OF_ASC_NODE><ARG_OF_PERICENTER>253.3502</ARG_OF_PERICENTER><MEAN_ANOMALY>106.6862</MEAN_ANOMALY></meanElements><tleParameters><EPHEMERIS_TYPE>0</EPHEMERIS_TYPE><CLASSIFICATION_TYPE>U</CLASSIFICATION_TYPE><NORAD_CAT_ID>64511</NORAD_CAT_ID><ELEMENT_SET_NO>999</ELEMENT_SET_NO><REV_AT_EPOCH>807</REV_AT_EPOCH><BSTAR>.28468222E-3</BSTAR><MEAN_MOTION_DOT>.9688E-4</MEAN_MOTION_DOT><MEAN_MOTION_DDOT>0</MEAN_MOTION_DDOT></tleParameters></data></segment></body></omm>
<omm id="CCSDS_OMM_VERS" version="2.0">
<header><CREATION_DATE/><ORIGINATOR/></header><body><segment><metadata><OBJECT_NAME>KUIPER-00052</OBJECT_NAME><OBJECT_ID>2025-134N</OBJECT_ID><CENTER_NAME>EARTH</CENTER_NAME><REF_FRAME>TEME</REF_FRAME><TIME_SYSTEM>UTC</TIME_SYSTEM><MEAN_ELEMENT_THEORY>SGP4</MEAN_ELEMENT_THEORY></metadata><data><meanElements><EPOCH>2025-08-06T22:00:01.999584</EPOCH><MEAN_MOTION>15.53275930</MEAN_MOTION><ECCENTRICITY>.00039011</ECCENTRICITY><INCLINATION>51.8763</INCLINATION><RA_OF_ASC_NODE>115.4090</RA_OF_ASC_NODE><ARG_OF_PERICENTER>293.9381</ARG_OF_PERICENTER><MEAN_ANOMALY>350.3094</MEAN_ANOMALY></meanElements><tleParameters><EPHEMERIS_TYPE>0</EPHEMERIS_TYPE><CLASSIFICATION_TYPE>U</CLASSIFICATION_TYPE><NORAD_CAT_ID>64512</NORAD_CAT_ID><ELEMENT_SET_NO>999</ELEMENT_SET_NO><REV_AT_EPOCH>527</REV_AT_EPOCH><BSTAR>-.12316523E-3</BSTAR><MEAN_MOTION_DOT>-.8371E-4</MEAN_MOTION_DOT><MEAN_MOTION_DDOT>0</MEAN_MOTION_DDOT></tleParameters></data></segment></body></omm>

</ndm>
