KUIPER-00044            
1 64505U 25134F   25218.02013138 -.00070731  00000+0 -37406-2 0  9992
2 64505  51.8749 123.3754 0013480 262.0076  97.9372 15.15103595  7908
KUIPER-00046            
1 64506U 25134G   25218.91668981 -.00354522  00000+0 -18394-1 0  9990
2 64506  51.8761 118.0695 0008962 283.7112 127.4135 15.17287370  4907
KUIPER-00047            
1 64507U 25134H   25218.94469364  .00014829  00000+0  44653-3 0  9998
2 64507  51.8625 116.8543 0009764 286.3543  73.6368 15.34521331  8072
KUIPER-00048            
1 64508U 25134J   25218.88738546  .00042579  00000+0  11777-2 0  9996
2 64508  51.8762 116.5346 0002957 258.6012 101.4643 15.36590172  8070
KUIPER-00049            
1 64509U 25134K   25218.91355757  .00023018  00000+0  66050-3 0  9992
2 64509  51.8733 116.6868 0006404 265.9361  94.0893 15.35747175  8078
KUIPER-00050            
1 64510U 25134L   25218.92020334  .00032507  00000+0  94065-3 0  9995
2 64510  51.8739 116.7343 0007277 263.7064  96.3093 15.35287801  8072
KUIPER-00051            
1 64511U 25134M   25218.90646575  .00009688  00000+0  28468-3 0  9993
2 64511  51.8759 116.6473 0005660 253.3502 106.6862 15.35763713  8074
KUIPER-00052            
1 64512U 25134N   25218.91668981 -.00008371  00000+0 -12317-3 0  9996
2 64512  51.8763 115.4090 0003901 293.9381 350.3094 15.53275930  5276
